NORAD_CAT_ID,OBJECT_NAME,OBJECT_TYPE,EPOCH,MEAN_MOTION,ECCENTRICITY,INCLINATION,RA_OF_ASC_NODE,ARG_OF_PERICENTER,MEAN_ANOMALY,BSTAR,MEAN_MOTION_DOT,MEAN_MOTION_DDOT,TLE_LINE0,TLE_LINE1,TLE_LINE2,SEMIMAJOR_AXIS,PERIOD,APOGEE,PERIGEE,DECAYED
56816.0,STARLINK-6067,PAYLOAD,2024-04-22 10:22:25,14.98326952,0.0002485,70.0013,254.5592,253.3874,106.7012,-0.00018442,-2.292e-05,0.0,0 STARLINK-6067,1 56816U 23078BB  24113.43223566 -.00002292  00000-0 -18442-3 0  9997,2 56816  70.0013 254.5592 0002485 253.3874 106.7012 14.98326952 50384,6950.202,96.107,573.794,570.34,0.0
56816.0,STARLINK-6067,PAYLOAD,2024-04-22 18:23:05,14.98329281,0.0002277,70.0016,253.7153,255.3942,104.6965,-9.4833e-05,-1.224e-05,0.0,0 STARLINK-6067,1 56816U 23078BB  24113.76603248 -.00001224  00000-0 -94833-4 0  9995,2 56816  70.0016 253.7153 0002277 255.3942 104.6965 14.98329281 50694,6950.195,96.107,573.643,570.478,0.0
56816.0,STARLINK-6067,PAYLOAD,2024-04-23 13:36:41,14.98323829,0.0002461,70.0017,251.6954,255.132,104.9566,0.00015339,1.737e-05,0.0,0 STARLINK-6067,1 56816U 23078BB  24114.56715065  .00001737  00000-0  15339-3 0  9995,2 56816  70.0017 251.6954 0002461 255.1320 104.9566 14.98323829 50551,6950.212,96.107,573.787,570.367,0.0
56816.0,STARLINK-6067,PAYLOAD,2024-04-23 18:25:04,14.98389759,0.0002725,70.0018,251.1905,249.0632,111.0235,-0.00090667,-0.00010911,0.0,0 STARLINK-6067,1 56816U 23078BB  24114.76741225 -.00010911  00000-0 -90667-3 0  9997,2 56816  70.0018 251.1905 0002725 249.0632 111.0235 14.98389759 50842,6950.008,96.103,573.767,569.979,0.0
56816.0,STARLINK-6067,PAYLOAD,2024-04-24 12:02:35,14.98325403,0.0002496,70.002,249.3411,241.0383,119.0526,-1.3754e-05,-2.57e-06,0.0,0 STARLINK-6067,1 56816U 23078BB  24115.50179672 -.00000257  00000-0 -13754-4 0  9996,2 56816  70.0020 249.3411 0002496 241.0383 119.0526 14.98325403 50955,6950.207,96.107,573.807,570.337,0.0
56816.0,STARLINK-6067,PAYLOAD,2024-04-24 13:38:43,14.98323499,0.0002552,70.0024,249.1736,245.8861,114.2031,-2.1097e-05,-3.45e-06,0.0,0 STARLINK-6067,1 56816U 23078BB  24115.56855853 -.00000345  00000-0 -21097-4 0  9991,2 56816  70.0024 249.1736 0002552 245.8861 114.2031 14.98323499 50707,6950.213,96.107,573.852,570.304,0.0
56816.0,STARLINK-6067,PAYLOAD,2024-04-24 18:27:07,14.9832292,0.0002591,70.002,248.6676,251.4123,108.6755,-1.6713e-05,-2.92e-06,0.0,0 STARLINK-6067,1 56816U 23078BB  24115.76883953 -.00000292  00000-0 -16713-4 0  9995,2 56816  70.0020 248.6676 0002591 251.4123 108.6755 14.98322920 50738,6950.215,96.107,573.881,570.279,0.0
56816.0,STARLINK-6067,PAYLOAD,2024-04-25 12:04:36,14.98328301,0.0002878,70.0011,246.8132,267.1529,92.93,-2.4864e-05,-3.9e-06,0.0,0 STARLINK-6067,1 56816U 23078BB  24116.50319800 -.00000390  00000-0 -24864-4 0  9998,2 56816  70.0011 246.8132 0002878 267.1529  92.9300 14.98328301 51109,6950.198,96.107,574.063,570.063,0.0
56816.0,STARLINK-6067,PAYLOAD,2024-04-25 13:40:44,14.98330402,0.0002746,70.002,246.6468,262.9025,97.1822,-1.8369e-05,-3.12e-06,0.0,0 STARLINK-6067,1 56816U 23078BB  24116.56995641 -.00000312  00000-0 -18369-4 0  9994,2 56816  70.0020 246.6468 0002746 262.9025  97.1822 14.98330402 50859,6950.192,96.107,573.965,570.148,0.0
56816.0,STARLINK-6067,PAYLOAD,2024-04-25 18:29:08,14.98334017,0.0002619,70.0022,246.1422,258.5541,101.5324,4.8114e-05,4.81e-06,0.0,0 STARLINK-6067,1 56816U 23078BB  24116.77023191  .00000481  00000-0  48114-4 0  9995,2 56816  70.0022 246.1422 0002619 258.5541 101.5324 14.98334017 51145,6950.18,96.107,573.866,570.225,0.0
56816.0,STARLINK-6067,PAYLOAD,2024-04-26 10:30:28,14.98325003,0.0002414,70.0028,244.4595,250.9708,109.1189,0.00010415,1.15e-05,0.0,0 STARLINK-6067,1 56816U 23078BB  24117.43783527  .00001150  00000-0  10415-3 0  9991,2 56816  70.0028 244.4595 0002414 250.9708 109.1189 14.98325003 51246,6950.208,96.107,573.751,570.396,0.0
56816.0,STARLINK-6067,PAYLOAD,2024-04-26 15:18:52,14.98328836,0.0002376,70.0029,243.9557,252.5073,107.5827,0.00013992,1.577e-05,0.0,0 STARLINK-6067,1 56816U 23078BB  24117.63811251  .00001577  00000-0  13992-3 0  9995,2 56816  70.0029 243.9557 0002376 252.5073 107.5827 14.98328836 51012,6950.196,96.107,573.713,570.41,0.0
56816.0,STARLINK-6067,PAYLOAD,2024-04-26 18:31:09,14.98328224,0.0002379,70.0028,243.6181,257.3908,102.6985,0.00012089,1.35e-05,0.0,0 STARLINK-6067,1 56816U 23078BB  24117.77163384  .00001350  00000-0  12089-3 0  9992,2 56816  70.0028 243.6181 0002379 257.3908 102.6985 14.98328224 51038,6950.198,96.107,573.717,570.41,0.0
56816.0,STARLINK-6067,PAYLOAD,2024-04-27 12:08:37,14.9833724,0.0002671,70.0019,241.7646,265.728,94.3574,6.7678e-05,7.15e-06,0.0,0 STARLINK-6067,1 56816U 23078BB  24118.50598741  .00000715  00000-0  67678-4 0  9992,2 56816  70.0019 241.7646 0002671 265.7280  94.3574 14.98337240 51404,6950.171,96.107,573.892,570.179,0.0
56816.0,STARLINK-6067,PAYLOAD,2024-04-27 13:44:45,14.98335264,0.0002799,70.0017,241.5957,267.59,92.4938,4.9485e-05,4.98e-06,0.0,0 STARLINK-6067,1 56816U 23078BB  24118.57274882  .00000498  00000-0  49485-4 0  9990,2 56816  70.0017 241.5957 0002799 267.5900  92.4938 14.98335264 51154,6950.177,96.107,573.987,570.096,0.0
56816.0,STARLINK-6067,PAYLOAD,2024-04-27 18:33:09,14.98341096,0.0002629,70.0018,241.0903,260.2099,99.8763,0.0001039,1.147e-05,0.0,0 STARLINK-6067,1 56816U 23078BB  24118.77302194  .00001147  00000-0  10390-3 0  9994,2 56816  70.0018 241.0903 0002629 260.2099  99.8763 14.98341096 51182,6950.159,96.106,573.851,570.196,0.0
56816.0,STARLINK-6067,PAYLOAD,2024-04-28 10:34:31,14.98324368,0.0002342,70.0026,239.4111,253.1667,106.9235,-0.00011804,-1.501e-05,0.0,0 STARLINK-6067,1 56816U 23078BB  24119.44063969 -.00001501  00000-0 -11804-3 0  9990,2 56816  70.0026 239.4111 0002342 253.1667 106.9235 14.98324368 51544,6950.21,96.107,573.703,570.448,0.0
56816.0,STARLINK-6067,PAYLOAD,2024-04-28 13:46:47,14.98317189,0.0002772,70.0015,239.0715,263.7154,96.3689,-0.00020861,-2.58e-05,0.0,0 STARLINK-6067,1 56816U 23078BB  24119.57416647 -.00002580  00000-0 -20861-3 0  9990,2 56816  70.0015 239.0715 0002772 263.7154  96.3689 14.98317189 51305,6950.233,96.108,574.024,570.171,0.0
56816.0,STARLINK-6067,PAYLOAD,2024-04-28 16:59:04,14.98317339,0.0002543,70.0019,238.736,259.2097,100.8776,-0.00019618,-2.432e-05,0.0,0 STARLINK-6067,1 56816U 23078BB  24119.70768682 -.00002432  00000-0 -19618-3 0  9998,2 56816  70.0019 238.7360 0002543 259.2097 100.8776 14.98317339 51588,6950.232,96.108,573.864,570.33,0.0
56816.0,STARLINK-6067,PAYLOAD,2024-04-29 00:59:44,14.9832281,0.0002688,70.0017,237.8933,266.9152,93.17,-0.00015067,-1.89e-05,0.0,0 STARLINK-6067,1 56816U 23078BB  24120.04148398 -.00001890  00000-0 -15067-3 0  9994,2 56816  70.0017 237.8933 0002688 266.9152  93.1700 14.98322810 51636,6950.215,96.107,573.948,570.212,0.0
56816.0,STARLINK-6067,PAYLOAD,2024-04-29 13:48:48,14.98325478,0.0002952,70.001,236.5456,266.1079,93.9742,-6.4729e-05,-8.65e-06,0.0,0 STARLINK-6067,1 56816U 23078BB  24120.57556100 -.00000865  00000-0 -64729-4 0  9997,2 56816  70.0010 236.5456 0002952 266.1079  93.9742 14.98325478 51456,6950.207,96.107,574.124,570.02,0.0
56816.0,STARLINK-6067,PAYLOAD,2024-04-29 18:37:12,14.98332575,0.0003011,70.0019,236.0387,262.7652,97.3164,-0.00012299,-1.56e-05,0.0,0 STARLINK-6067,1 56816U 23078BB  24120.77583817 -.00001560  00000-0 -12299-3 0  9991,2 56816  70.0019 236.0387 0003011 262.7652  97.3164 14.98332575 51743,6950.185,96.107,574.143,569.957,0.0
56816.0,STARLINK-6067,PAYLOAD,2024-04-30 13:50:48,14.98333283,0.0002924,70.0004,234.0193,269.0369,91.0455,0.00024705,2.856e-05,0.0,0 STARLINK-6067,1 56816U 23078BB  24121.57694809  .00002856  00000-0  24705-3 0  9996,2 56816  70.0004 234.0193 0002924 269.0369  91.0455 14.98333283 51603,6950.183,96.107,574.08,570.016,0.0
56816.0,STARLINK-6067,PAYLOAD,2024-04-30 17:03:04,14.98333924,0.000284,70.0008,233.683,268.1773,91.9061,0.00027201,3.154e-05,0.0,0 STARLINK-6067,1 56816U 23078BB  24121.71046686  .00003154  00000-0  27201-3 0  9992,2 56816  70.0008 233.6830 0002840 268.1773  91.9061 14.98333924 51880,6950.181,96.107,574.02,570.072,0.0
56816.0,STARLINK-6067,PAYLOAD,2024-05-01 07:28:17,14.9832884,0.0002864,70.0026,232.1669,269.7662,90.3168,0.00012843,1.44e-05,0.0,0 STARLINK-6067,1 56816U 23078BB  24122.31131340  .00001440  00000-0  12843-3 0  9993,2 56816  70.0026 232.1669 0002864 269.7662  90.3168 14.98328840 51976,6950.196,96.107,574.052,570.071,0.0
56816.0,STARLINK-6067,PAYLOAD,2024-05-01 13:52:49,14.98325621,0.0002765,70.0023,231.4955,268.7898,91.2944,0.00013607,1.531e-05,0.0,0 STARLINK-6067,1 56816U 23078BB  24122.57835532  .00001531  00000-0  13607-3 0  9995,2 56816  70.0023 231.4955 0002765 268.7898  91.2944 14.98325621 51755,6950.206,96.107,573.993,570.15,0.0
56816.0,STARLINK-6067,PAYLOAD,2024-05-02 10:42:34,14.98337028,0.0002834,70.0005,229.3068,270.3048,89.7786,-0.0001135,-1.447e-05,0.0,0 STARLINK-6067,1 56816U 23078BB  24123.44623257 -.00001447  00000-0 -11350-3 0  9992,2 56816  70.0005 229.3068 0002834 270.3048  89.7786 14.98337028 52143,6950.171,96.107,574.006,570.066,0.0
56816.0,STARLINK-6067,PAYLOAD,2024-05-02 13:54:50,14.98339171,0.0002827,70.0003,228.9701,270.1415,89.942,-8.8125e-05,-1.145e-05,0.0,0 STARLINK-6067,1 56816U 23078BB  24123.57974975 -.00001145  00000-0 -88125-4 0  9992,2 56816  70.0003 228.9701 0002827 270.1415  89.9420 14.98339171 51909,6950.165,96.106,573.994,570.065,0.0
56816.0,STARLINK-6067,PAYLOAD,2024-05-03 10:44:34,14.98340426,0.0002822,70.0007,226.7825,270.5104,89.5732,0.00013276,1.492e-05,0.0,0 STARLINK-6067,1 56816U 23078BB  24124.44761761  .00001492  00000-0  13276-3 0  9993,2 56816  70.0007 226.7825 0002822 270.5104  89.5732 14.98340426 52290,6950.161,96.106,573.987,570.064,0.0
56816.0,STARLINK-6067,PAYLOAD,2024-05-03 13:56:49,14.98344866,0.0002834,70.0005,226.446,270.0613,90.0221,0.00015304,1.734e-05,0.0,0 STARLINK-6067,1 56816U 23078BB  24124.58113314  .00001734  00000-0  15304-3 0  9996,2 56816  70.0005 226.4460 0002834 270.0613  90.0221 14.98344866 52059,6950.147,96.106,573.982,570.042,0.0
